[{"OBJECT_NAME":"STARLINK-30950","OBJECT_ID":"2023-183D","EPOCH":"2026-03-09T10:21:13.109472","MEAN_MOTION":15.2760019,"ECCENTRICITY":0.00010874,"INCLINATION":42.9999,"RA_OF_ASC_NODE":206.585,"ARG_OF_PERICENTER":221.0616,"MEAN_ANOMALY":139.0154,"EPHEMERIS_TYPE":0,"CLASSIFICATION_TYPE":"U","NORAD_CAT_ID":58440,"ELEMENT_SET_NO":999,"REV_AT_EPOCH":12899,"BSTAR":-0.00015336088,"MEAN_MOTION_DOT":-4.482e-5,"MEAN_MOTION_DDOT":0},{"OBJECT_NAME":"FENGYUN 1C DEB","OBJECT_ID":"1999-025CMP","EPOCH":"2026-03-08T08:37:00.789888","MEAN_MOTION":14.96815474,"ECCENTRICITY":0.01497126,"INCLINATION":98.9176,"RA_OF_ASC_NODE":115.7276,"ARG_OF_PERICENTER":148.4975,"MEAN_ANOMALY":212.5316,"EPHEMERIS_TYPE":0,"CLASSIFICATION_TYPE":"U","NORAD_CAT_ID":31938,"ELEMENT_SET_NO":999,"REV_AT_EPOCH":409,"BSTAR":0.00073670691,"MEAN_MOTION_DOT":0.00010536,"MEAN_MOTION_DDOT":0}]
